      2.10          N: GNSS NAV DATA                        RINEX VERSION / TYPE
fic2rin                                 09/08/2022 00:17:36 PGM / RUN BY / DATE
                                                            END OF HEADER
10 22  9  7 14  0  0.0 -.223657116294D-05 -.170530256582D-11  .000000000000D+00
     .124000000000D+03 -.126718750000D+03  .450197323954D-08  .102549800589D+01
    -.643916428089D-05  .788250984624D-02  .425800681114D-05  .515368920326D+04
     .309600000000D+06  .316649675369D-07  .177184486292D+01  .130385160446D-06
     .974743698673D+00  .305562500000D+03 -.251218549472D+01 -.840856453618D-08
    -.405016870578D-09  .100000000000D+01  .222600000000D+04  .000000000000D+00
     .485000000000D+01  .000000000000D+00  .232830643654D-08  .124000000000D+03
     .302400000000D+06  .400000000000D+01
8  22  9  7 14  0  0.0 -.836448743939D-04 -.159161572810D-11  .000000000000D+00
     .106000000000D+03  .973437500000D+02  .412660046090D-08 -.103137986406D+01
     .487826764584D-05  .748804130126D-02  .115185976028D-04  .515359199142D+04
     .309600000000D+06  .104308128357D-06 -.342834954281D+00 -.160187482834D-06
     .962509727319D+00  .154375000000D+03  .163995052126D+00 -.780782522726D-08
    -.700029159024D-10  .100000000000D+01  .222600000000D+04  .000000000000D+00
     .340000000000D+01  .000000000000D+00  .512227416039D-08  .106000000000D+03
     .302400000000D+06  .400000000000D+01
29 22  9  7 14  0  0.0 -.549551565200D-03 -.329691829393D-11  .000000000000D+00
     .610000000000D+02  .955312500000D+02  .381908765176D-08 -.109948182544D+01
     .469200313091D-05  .223533937242D-02  .104811042547D-04  .515365430450D+04
     .309600000000D+06 -.353902578354D-07 -.244427835892D+00  .111758708954D-07
     .980020529034D+00  .192281250000D+03  .244291644948D+01 -.763781814578D-08
     .392873507616D-10  .100000000000D+01  .222600000000D+04  .000000000000D+00
     .240000000000D+01  .000000000000D+00 -.102445483208D-07  .610000000000D+02
     .302400000000D+06  .400000000000D+01
15 22  9  7 14  0  0.0 -.309436582029D-04  .306954461848D-11  .000000000000D+00
     .710000000000D+02 -.757500000000D+02  .485448792319D-08 -.199879312162D+01
    -.395812094212D-05  .145120206289D-01  .111572444439D-04  .515361645508D+04
     .309600000000D+06  .217929482460D-06  .269008945407D+01 -.100582838058D-06
     .931246660333D+00  .145187500000D+03  .112887495250D+01 -.786747056887D-08
     .155363614375D-09  .100000000000D+01  .222600000000D+04  .000000000000D+00
     .240000000000D+01  .000000000000D+00 -.107102096081D-07  .710000000000D+02
     .302400000000D+06  .400000000000D+01
32 22  9  7 14  0  0.0 -.226276926696D-03 -.111413100967D-10  .000000000000D+00
     .620000000000D+02 -.731875000000D+02  .440375486264D-08 -.309651469381D+00
    -.386498868465D-05  .609132251702D-02  .122785568237D-04  .515364906502D+04
     .309600000000D+06 -.242143869400D-07  .281354395362D+01  .782310962677D-07
     .959029813864D+00  .142406250000D+03 -.229087469032D+01 -.796390315710D-08
     .185007706314D-09  .100000000000D+01  .222600000000D+04  .000000000000D+00
     .240000000000D+01  .000000000000D+00  .465661287308D-09  .620000000000D+02
     .302400000000D+06  .400000000000D+01
21 22  9  7 14  0  0.0  .159724615514D-03 -.454747350886D-12  .000000000000D+00
     .780000000000D+02  .943125000000D+02  .489377527395D-08 -.990544637349D+00
     .476650893688D-05  .243231697241D-01  .354833900928D-05  .515370454597D+04
     .309600000000D+06 -.337138772011D-06  .644782799460D+00 -.206753611565D-06
     .960823423112D+00  .320656250000D+03 -.899117999348D+00 -.879858078192D-08
     .645026867958D-09  .100000000000D+01  .222600000000D+04  .000000000000D+00
     .240000000000D+01  .000000000000D+00 -.102445483208D-07  .780000000000D+02
     .302400000000D+06  .400000000000D+01
24 22  9  7 14  0  0.0  .143508892506D-03 -.127329258248D-10  .000000000000D+00
     .610000000000D+02  .357812500000D+02  .524628995761D-08 -.294305382219D+01
     .182911753654D-05  .129354916280D-01  .690482556820D-05  .515366925812D+04
     .309600000000D+06  .447034835815D-07 -.249662540942D+01 -.156462192535D-06
     .934298259170D+00  .230343750000D+03  .835034773407D+00 -.817569769348D-08
     .445732852277D-09  .100000000000D+01  .222600000000D+04  .000000000000D+00
     .240000000000D+01  .000000000000D+00  .279396772385D-08  .610000000000D+02
     .302400000000D+06  .400000000000D+01
26 22  9  7 14  0  0.0  .227449927479D-03  .170530256582D-11  .000000000000D+00
     .410000000000D+02 -.110312500000D+02  .523521806785D-08  .721898498404D+00
    -.482425093651D-06  .714655232150D-02  .657700002193D-05  .515380349541D+04
     .309600000000D+06  .167638063431D-07 -.142626474433D+01  .134110450745D-06
     .936018642054D+00  .238187500000D+03  .384394865258D+00 -.840070706603D-08
    -.553951645738D-09  .100000000000D+01  .222600000000D+04  .000000000000D+00
     .240000000000D+01  .000000000000D+00  .698491930962D-08  .410000000000D+02
     .302400000000D+06  .400000000000D+01
13 22  9  7 14  0  0.0  .382971018553D-03  .727595761418D-11  .000000000000D+00
     .670000000000D+02 -.414375000000D+02  .407338395851D-08 -.148898753691D+01
    -.221095979214D-05  .638857681770D-02  .119805335999D-04  .515368099213D+04
     .309600000000D+06  .173225998878D-06  .295752351565D+01 -.167638063431D-07
     .969483890827D+00  .154343750000D+03  .931376637678D+00 -.762246036321D-08
     .215366113720D-09  .100000000000D+01  .222600000000D+04  .000000000000D+00
     .240000000000D+01  .000000000000D+00 -.111758708954D-07  .670000000000D+02
     .302400000000D+06  .400000000000D+01
27 22  9  7 14  0  0.0  .213844701648D-03 -.352429196937D-11  .000000000000D+00
     .880000000000D+02  .102812500000D+03  .397159400426D-08 -.101624110355D+01
     .541657209396D-05  .105675394880D-01  .113490968943D-04  .515366678238D+04
     .309600000000D+06  .249594449997D-06 -.321723403540D+00  .782310962677D-07
     .971311053564D+00  .164718750000D+03  .687555336400D+00 -.777032366517D-08
    -.778603860547D-10  .100000000000D+01  .222600000000D+04  .000000000000D+00
     .240000000000D+01  .000000000000D+00  .139698386192D-08  .880000000000D+02
     .302400000000D+06  .400000000000D+01
19 22  9  7 14  0  0.0  .207553617656D-03  .500222085975D-11  .000000000000D+00
     .820000000000D+02  .862187500000D+02  .396016495677D-08  .116390087886D+01
     .450760126114D-05  .916506221984D-02  .107437372208D-04  .515372209358D+04
     .309600000000D+06  .145286321640D-06 -.213201931413D+00 -.184401869774D-06
     .976811865461D+00  .179750000000D+03  .216968762895D+01 -.771210695450D-08
     .528593446610D-10  .100000000000D+01  .222600000000D+04  .000000000000D+00
     .240000000000D+01  .000000000000D+00 -.153668224812D-07  .820000000000D+02
     .302400000000D+06  .400000000000D+01
20 22  9  7 14  0  0.0  .488374382257D-03 -.306954461848D-11  .000000000000D+00
     .800000000000D+02 -.920937500000D+02  .518164440772D-08 -.216085752857D+01
    -.472180545330D-05  .477826164570D-02  .228546559811D-05  .515365114021D+04
     .309600000000D+06 -.353902578354D-07  .161362126400D+01 -.206753611565D-06
     .944321022532D+00  .323875000000D+03 -.310080572512D+01 -.864000274794D-08
    -.203937066226D-09  .100000000000D+01  .222600000000D+04  .000000000000D+00
     .340000000000D+01  .000000000000D+00 -.838190317154D-08  .800000000000D+02
     .302400000000D+06  .400000000000D+01
22 22  9  7 14  0  0.0  .323622953147D-03  .670752342558D-11  .000000000000D+00
     .710000000000D+02 -.565625000000D+02  .431625121776D-08 -.121656385529D+01
    -.292062759399D-05  .134486811003D-01  .125244259834D-04  .515374040222D+04
     .309600000000D+06  .745058059692D-08  .290444725462D+01  .417232513428D-06
     .962225643257D+00  .140250000000D+03 -.184512513006D+01 -.784746973576D-08
     .207151485834D-09  .100000000000D+01  .222600000000D+04  .000000000000D+00
     .240000000000D+01  .000000000000D+00 -.791624188423D-08  .710000000000D+02
     .302400000000D+06  .400000000000D+01
17 22  9  7 14  0  0.0  .656704418361D-03  .397903932026D-11  .000000000000D+00
     .510000000000D+02  .892500000000D+02  .395337895982D-08 -.100874606660D+01
     .480934977531D-05  .136755160056D-01  .113844871521D-04  .515361734009D+04
     .309600000000D+06 -.217929482460D-06 -.257889634390D+00  .137835741043D-06
     .977892754187D+00  .176906250000D+03 -.148239769808D+01 -.785639867911D-08
     .585738684082D-10  .100000000000D+01  .222600000000D+04  .000000000000D+00
     .240000000000D+01  .000000000000D+00 -.111758708954D-07  .510000000000D+02
     .302400000000D+06  .400000000000D+01
18 22  9  7 14  0  0.0  .564423389733D-04 -.126192389871D-10  .000000000000D+00
     .203000000000D+03  .784062500000D+02  .454661795632D-08 -.296053936370D+01
     .425428152084D-05  .280411925633D-02  .211223959923D-05  .515372507477D+04
     .309600000000D+06 -.204890966415D-07  .746017252807D+00 -.856816768646D-07
     .972329335248D+00  .348375000000D+03  .305052763285D+01 -.830213153139D-08
     .381801617856D-09  .100000000000D+01  .222600000000D+04  .000000000000D+00
     .240000000000D+01  .000000000000D+00 -.838190317154D-08  .203000000000D+03
     .302400000000D+06  .400000000000D+01
11 22  9  7 14  0  0.0 -.148988328874D-04 -.238742359215D-11  .000000000000D+00
     .225000000000D+03  .670000000000D+02  .472412535021D-08 -.125406961797D+01
     .355392694473D-05  .708060921170D-03  .228732824326D-05  .515363435555D+04
     .309600000000D+06  .838190317154D-07  .780218867248D+00  .502914190292D-07
     .963714225309D+00  .335937500000D+03  .306744990408D+01 -.844749472921D-08
     .309298597814D-09  .100000000000D+01  .222600000000D+04  .000000000000D+00
     .240000000000D+01  .000000000000D+00 -.838190317154D-08  .737000000000D+03
     .302400000000D+06  .400000000000D+01
